[{"OBJECT_NAME":"IRIDIUM 123","OBJECT_ID":"2017-039B","EPOCH":"2026-03-09T22:21:18.884448","MEAN_MOTION":14.34218976,"ECCENTRICITY":0.00019684,"INCLINATION":86.3973,"RA_OF_ASC_NODE":35.1027,"ARG_OF_PERICENTER":83.6618,"MEAN_ANOMALY":276.4802,"EPHEMERIS_TYPE":0,"CLASSIFICATION_TYPE":"U","NORAD_CAT_ID":42804,"ELEMENT_SET_NO":999,"REV_AT_EPOCH":45572,"BSTAR":0.00013835042,"MEAN_MOTION_DOT":4.07e-6,"MEAN_MOTION_DDOT":0},{"OBJECT_NAME":"FENGYUN 1C DEB","OBJECT_ID":"1999-025AGT","EPOCH":"2026-03-09T13:21:25.799040","MEAN_MOTION":14.39437618,"ECCENTRICITY":0.02228411,"INCLINATION":98.333,"RA_OF_ASC_NODE":88.5192,"ARG_OF_PERICENTER":359.2613,"MEAN_ANOMALY":124.5513,"EPHEMERIS_TYPE":0,"CLASSIFICATION_TYPE":"U","NORAD_CAT_ID":30481,"ELEMENT_SET_NO":999,"REV_AT_EPOCH":99732,"BSTAR":0.00074800795,"MEAN_MOTION_DOT":3.067e-5,"MEAN_MOTION_DDOT":0}]
